start=new Date('2022-04-07T00:00:00.000Z').valueOf();
sats=[{"SEMIMAJOR_AXIS":"6925.364","COUNTRY_CODE":"US","DECAY_DATE":null,"MEAN_MOTION":"15.06395011","GP_ID":"200627621","REV_AT_EPOCH":"4789","REF_FRAME":"TEME","NORAD_CAT_ID":"48668","BSTAR":"-0.00001845000000","TLE_LINE2":"2 48668  53.0565  63.7791 0001654  48.0438 312.0692 15.06395011 47896","ELEMENT_SET_NO":"999","LAUNCH_DATE":"2021-05-26","CENTER_NAME":"EARTH","MEAN_ELEMENT_THEORY":"SGP4","SITE":"AFETR","EPHEMERIS_TYPE":"0","RCS_SIZE":"LARGE","MEAN_MOTION_DOT":"-0.00000556","OBJECT_NAME":"STARLINK-2738","ECCENTRICITY":"0.00016540","APOAPSIS":"548.374","PERIOD":"95.592","TIME_SYSTEM":"UTC","TLE_LINE1":"1 48668U 21044AG  22096.87483702 -.00000556  00000-0 -18450-4 0  9991","RA_OF_ASC_NODE":"63.7791","PERIAPSIS":"546.083","MEAN_ANOMALY":"312.0692","INCLINATION":"53.0565","OBJECT_ID":"2021-044AG","CLASSIFICATION_TYPE":"U","FILE":"3391320","MEAN_MOTION_DDOT":"0.0000000000000","ARG_OF_PERICENTER":"48.0438","EPOCH":"2022-04-06T20:59:45.918528","OBJECT_TYPE":"PAYLOAD"},{"COUNTRY_CODE":"US","DECAY_DATE":null,"SEMIMAJOR_AXIS":"6925.370","GP_ID":"200626369","REV_AT_EPOCH":"4784","MEAN_MOTION":"15.06393004","TLE_LINE2":"2 48669  53.0545  64.9683 0001493  72.7031 287.4122 15.06393004 47840","ELEMENT_SET_NO":"999","LAUNCH_DATE":"2021-05-26","CENTER_NAME":"EARTH","REF_FRAME":"TEME","NORAD_CAT_ID":"48669","BSTAR":"0.00006297600000","MEAN_MOTION_DOT":"0.00000656","MEAN_ELEMENT_THEORY":"SGP4","SITE":"AFETR","EPHEMERIS_TYPE":"0","RCS_SIZE":"LARGE","OBJECT_NAME":"STARLINK-2707","ECCENTRICITY":"0.00014930","TLE_LINE1":"1 48669U 21044AH  22096.60576552  .00000656  00000-0  62976-4 0  9990","APOAPSIS":"548.269","PERIOD":"95.593","TIME_SYSTEM":"UTC","OBJECT_ID":"2021-044AH","CLASSIFICATION_TYPE":"U","FILE":"3391320","RA_OF_ASC_NODE":"64.9683","MEAN_ANOMALY":"287.4122","PERIAPSIS":"546.201","INCLINATION":"53.0545","EPOCH":"2022-04-06T14:32:18.140928","OBJECT_TYPE":"PAYLOAD","ARG_OF_PERICENTER":"72.7031","MEAN_MOTION_DDOT":"0.0000000000000"},{"TLE_LINE1":"1 48670U 21044AJ  22096.93380839  .00000727  00000-0  67724-4 0  9994","PERIOD":"95.592","APOAPSIS":"548.191","TIME_SYSTEM":"UTC","OBJECT_NAME":"STARLINK-2763","ECCENTRICITY":"0.00014100","OBJECT_TYPE":"PAYLOAD","EPOCH":"2022-04-06T22:24:41.044896","MEAN_MOTION_DDOT":"0.0000000000000","ARG_OF_PERICENTER":"75.2541","OBJECT_ID":"2021-044AJ","CLASSIFICATION_TYPE":"U","FILE":"3391320","MEAN_ANOMALY":"284.8604","PERIAPSIS":"546.238","RA_OF_ASC_NODE":"63.4946","INCLINATION":"53.0557","GP_ID":"200626120","REV_AT_EPOCH":"4789","MEAN_MOTION":"15.06399738","COUNTRY_CODE":"US","DECAY_DATE":null,"SEMIMAJOR_AXIS":"6925.349","MEAN_MOTION_DOT":"0.00000727","EPHEMERIS_TYPE":"0","SITE":"AFETR","MEAN_ELEMENT_THEORY":"SGP4","RCS_SIZE":"LARGE","ELEMENT_SET_NO":"999","TLE_LINE2":"2 48670  53.0557  63.4946 0001410  75.2541 284.8604 15.06399738 47895","CENTER_NAME":"EARTH","LAUNCH_DATE":"2021-05-26","NORAD_CAT_ID":"48670","REF_FRAME":"TEME","BSTAR":"0.00006772400000"},{"GP_ID":"200627371","REV_AT_EPOCH":"4784","MEAN_MOTION":"15.06392561","COUNTRY_CODE":"US","DECAY_DATE":null,"SEMIMAJOR_AXIS":"6925.371","MEAN_MOTION_DOT":"0.00001612","MEAN_ELEMENT_THEORY":"SGP4","EPHEMERIS_TYPE":"0","SITE":"AFETR","RCS_SIZE":"LARGE","TLE_LINE2":"2 48671  53.0568  65.0229 0001554  58.4495 301.6646 15.06392561 47846","ELEMENT_SET_NO":"999","LAUNCH_DATE":"2021-05-26","CENTER_NAME":"EARTH","NORAD_CAT_ID":"48671","REF_FRAME":"TEME","BSTAR":"0.00012714000000","TLE_LINE1":"1 48671U 21044AK  22096.59839158  .00001612  00000-0  12714-3 0  9992","APOAPSIS":"548.313","PERIOD":"95.593","TIME_SYSTEM":"UTC","OBJECT_NAME":"STARLINK-2745","ECCENTRICITY":"0.00015540","EPOCH":"2022-04-06T14:21:41.032512","OBJECT_TYPE":"PAYLOAD","ARG_OF_PERICENTER":"58.4495","MEAN_MOTION_DDOT":"0.0000000000000","OBJECT_ID":"2021-044AK","FILE":"3391320","CLASSIFICATION_TYPE":"U","RA_OF_ASC_NODE":"65.0229","PERIAPSIS":"546.160","MEAN_ANOMALY":"301.6646","INCLINATION":"53.0568"},{"OBJECT_NAME":"STARLINK-2705","ECCENTRICITY":"0.00014170","TLE_LINE1":"1 48672U 21044AL  22096.39567046 -.00000411  00000-0 -86864-5 0  9992","APOAPSIS":"548.234","PERIOD":"95.593","TIME_SYSTEM":"UTC","OBJECT_ID":"2021-044AL","FILE":"3390621","CLASSIFICATION_TYPE":"U","RA_OF_ASC_NODE":"65.9283","MEAN_ANOMALY":"290.7765","PERIAPSIS":"546.271","INCLINATION":"53.0567","EPOCH":"2022-04-06T09:29:45.927744","OBJECT_TYPE":"PAYLOAD","MEAN_MOTION_DDOT":"0.0000000000000","ARG_OF_PERICENTER":"69.3376","COUNTRY_CODE":"US","DECAY_DATE":null,"SEMIMAJOR_AXIS":"6925.388","GP_ID":"200562145","REV_AT_EPOCH":"4871","MEAN_MOTION":"15.06387189","TLE_LINE2":"2 48672  53.0567  65.9283 0001417  69.3376 290.7765 15.06387189 48719","ELEMENT_SET_NO":"999","LAUNCH_DATE":"2021-05-26","CENTER_NAME":"EARTH","REF_FRAME":"TEME","NORAD_CAT_ID":"48672","BSTAR":"-0.00000868640000","MEAN_MOTION_DOT":"-0.00000411","MEAN_ELEMENT_THEORY":"SGP4","EPHEMERIS_TYPE":"0","SITE":"AFETR","RCS_SIZE":"LARGE"},{"OBJECT_ID":"2021-044AM","FILE":"3391320","CLASSIFICATION_TYPE":"U","RA_OF_ASC_NODE":"63.5541","MEAN_ANOMALY":"295.6236","PERIAPSIS":"546.088","INCLINATION":"53.0556","EPOCH":"2022-04-06T22:08:45.736512","OBJECT_TYPE":"PAYLOAD","MEAN_MOTION_DDOT":"0.0000000000000","ARG_OF_PERICENTER":"64.4920","OBJECT_NAME":"STARLINK-2711","ECCENTRICITY":"0.00016200","TLE_LINE1":"1 48673U 21044AM  22096.92275158  .00001887  00000-0  14557-3 0  9996","APOAPSIS":"548.332","PERIOD":"95.592","TIME_SYSTEM":"UTC","TLE_LINE2":"2 48673  53.0556  63.5541 0001620  64.4920 295.6236 15.06401119 47891","ELEMENT_SET_NO":"999","LAUNCH_DATE":"2021-05-26","CENTER_NAME":"EARTH","NORAD_CAT_ID":"48673","REF_FRAME":"TEME","BSTAR":"0.00014557000000","MEAN_MOTION_DOT":"0.00001887","MEAN_ELEMENT_THEORY":"SGP4","SITE":"AFETR","EPHEMERIS_TYPE":"0","RCS_SIZE":"LARGE","COUNTRY_CODE":"US","DECAY_DATE":null,"SEMIMAJOR_AXIS":"6925.345","GP_ID":"200625870","REV_AT_EPOCH":"4789","MEAN_MOTION":"15.06401119"},{"OBJECT_ID":"2021-044AN","FILE":"3391320","CLASSIFICATION_TYPE":"U","RA_OF_ASC_NODE":"63.5725","PERIAPSIS":"546.103","MEAN_ANOMALY":"300.0765","INCLINATION":"53.0566","EPOCH":"2022-04-06T22:03:27.247104","OBJECT_TYPE":"PAYLOAD","ARG_OF_PERICENTER":"60.0383","MEAN_MOTION_DDOT":"0.0000000000000","OBJECT_NAME":"STARLINK-2712","ECCENTRICITY":"0.00016050","TLE_LINE1":"1 48674U 21044AN  22096.91906536  .00000066  00000-0  23360-4 0  9998","APOAPSIS":"548.326","PERIOD":"95.592","TIME_SYSTEM":"UTC","TLE_LINE2":"2 48674  53.0566  63.5725 0001605  60.0383 300.0765 15.06399819 47896","ELEMENT_SET_NO":"999","LAUNCH_DATE":"2021-05-26","CENTER_NAME":"EARTH","NORAD_CAT_ID":"48674","REF_FRAME":"TEME","BSTAR":"0.00002336000000","MEAN_MOTION_DOT":"0.00000066","MEAN_ELEMENT_THEORY":"SGP4","SITE":"AFETR","EPHEMERIS_TYPE":"0","RCS_SIZE":"LARGE","COUNTRY_CODE":"US","DECAY_DATE":null,"SEMIMAJOR_AXIS":"6925.349","GP_ID":"200626620","REV_AT_EPOCH":"4789","MEAN_MOTION":"15.06399819"},{"MEAN_MOTION_DOT":"0.00005491","RCS_SIZE":"MEDIUM","MEAN_ELEMENT_THEORY":"SGP4","EPHEMERIS_TYPE":"0","SITE":"AFETR","LAUNCH_DATE":"2021-05-26","CENTER_NAME":"EARTH","TLE_LINE2":"2 48675  53.0544  66.2773 0001544  59.0158 301.0982 15.06403818 47804","ELEMENT_SET_NO":"999","BSTAR":"0.00038717000000","NORAD_CAT_ID":"48675","REF_FRAME":"TEME","REV_AT_EPOCH":"4780","GP_ID":"200593629","MEAN_MOTION":"15.06403818","DECAY_DATE":null,"COUNTRY_CODE":"US","SEMIMAJOR_AXIS":"6925.337","EPOCH":"2022-04-06T07:38:17.135232","OBJECT_TYPE":"PAYLOAD","MEAN_MOTION_DDOT":"0.0000000000000","ARG_OF_PERICENTER":"59.0158","CLASSIFICATION_TYPE":"U","FILE":"3390907","OBJECT_ID":"2021-044AP","INCLINATION":"53.0544","RA_OF_ASC_NODE":"66.2773","MEAN_ANOMALY":"301.0982","PERIAPSIS":"546.133","TLE_LINE1":"1 48675U 21044AP  22096.31825388  .00005491  00000-0  38717-3 0  9996","TIME_SYSTEM":"UTC","APOAPSIS":"548.271","PERIOD":"95.592","ECCENTRICITY":"0.00015440","OBJECT_NAME":"STARLINK-2737"},{"SEMIMAJOR_AXIS":"6925.380","DECAY_DATE":null,"COUNTRY_CODE":"US","MEAN_MOTION":"15.06389734","REV_AT_EPOCH":"4778","GP_ID":"200592377","BSTAR":"-0.00021737000000","REF_FRAME":"TEME","NORAD_CAT_ID":"48676","LAUNCH_DATE":"2021-05-26","CENTER_NAME":"EARTH","TLE_LINE2":"2 48676  53.0556  66.8889 0001638  50.9587 309.1547 15.06389734 47785","ELEMENT_SET_NO":"999","RCS_SIZE":"LARGE","MEAN_ELEMENT_THEORY":"SGP4","EPHEMERIS_TYPE":"0","SITE":"AFETR","MEAN_MOTION_DOT":"-0.00003517","ECCENTRICITY":"0.00016380","OBJECT_NAME":"STARLINK-2746","TIME_SYSTEM":"UTC","APOAPSIS":"548.379","PERIOD":"95.593","TLE_LINE1":"1 48676U 21044AQ  22096.18186700 -.00003517  00000-0 -21737-3 0  9993","INCLINATION":"53.0556","RA_OF_ASC_NODE":"66.8889","MEAN_ANOMALY":"309.1547","PERIAPSIS":"546.111","FILE":"3390907","CLASSIFICATION_TYPE":"U","OBJECT_ID":"2021-044AQ","ARG_OF_PERICENTER":"50.9587","MEAN_MOTION_DDOT":"0.0000000000000","EPOCH":"2022-04-06T04:21:53.308800","OBJECT_TYPE":"PAYLOAD"},{"COUNTRY_CODE":"US","DECAY_DATE":null,"SEMIMAJOR_AXIS":"6925.351","GP_ID":"200626370","REV_AT_EPOCH":"4789","MEAN_MOTION":"15.06399058","TLE_LINE2":"2 48677  53.0570  63.6223 0001414  71.7884 288.3259 15.06399058 47892","ELEMENT_SET_NO":"999","LAUNCH_DATE":"2021-05-26","CENTER_NAME":"EARTH","REF_FRAME":"TEME","NORAD_CAT_ID":"48677","BSTAR":"0.00011418000000","MEAN_MOTION_DOT":"0.00001420","MEAN_ELEMENT_THEORY":"SGP4","EPHEMERIS_TYPE":"0","SITE":"AFETR","RCS_SIZE":"LARGE","OBJECT_NAME":"STARLINK-2719","ECCENTRICITY":"0.00014140","TLE_LINE1":"1 48677U 21044AR  22096.90800868  .00001420  00000-0  11418-3 0  9996","APOAPSIS":"548.196","PERIOD":"95.592","TIME_SYSTEM":"UTC","OBJECT_ID":"2021-044AR","CLASSIFICATION_TYPE":"U","FILE":"3391320","RA_OF_ASC_NODE":"63.6223","MEAN_ANOMALY":"288.3259","PERIAPSIS":"546.237","INCLINATION":"53.0570","EPOCH":"2022-04-06T21:47:31.949952","OBJECT_TYPE":"PAYLOAD","MEAN_MOTION_DDOT":"0.0000000000000","ARG_OF_PERICENTER":"71.7884"}];
